FLOCK 4BE-23            
1 60490U 24149Y   25299.22353598  .00018195  00000+0  62395-3 0  9994
2 60490  97.4004  16.4604 0004361  42.7137 317.4442 15.30219428 66321
FLOCK 4BE-15            
1 60491U 24149Z   25299.16345665  .00017958  00000+0  55329-3 0  9999
2 60491  97.3943  16.7772 0004589  65.7472 294.4250 15.33667072 66361
FLOCK 4BE-17            
1 60492U 24149AA  25299.19476002  .00018373  00000+0  60972-3 0  9995
2 60492  97.4002  16.8310 0003554  41.7267 318.4245 15.31284435 66340
NUSAT-50 (NANCY ROMAN)  
1 60493U 24149AB  25299.21166150  .00013941  00000+0  48222-3 0  9999
2 60493  97.3988  16.8520 0004721  42.2833 317.8771 15.29994811 66359
FLOCK 4BE-22            
1 60494U 24149AC  25299.27055045  .00018066  00000+0  58598-3 0  9996
2 60494  97.3956  16.8643 0005263  44.0011 316.1648 15.32016600 66373
FLOCK 4BE-34            
1 60495U 24149AD  25299.20401824  .00016817  00000+0  53313-3 0  9992
2 60495  97.3997  17.3711 0004847  54.0319 306.1372 15.32768741 66384
TYCHE                   
1 60496U 24149AE  25299.22525581  .00007050  00000+0  28397-3 0  9995
2 60496  97.3991  14.8722 0005244  54.0133 306.1590 15.25155527 66228
FLOCK 4BE-32            
1 60497U 24149AF  25299.16477293  .00021434  00000+0  68407-3 0  9993
2 60497  97.3941  16.9223 0004771  43.9216 316.2404 15.32503714 66371
NUSAT-48 (HENRIETTA LE*)
1 60498U 24149AG  25299.18694370  .00014663  00000+0  48550-3 0  9996
2 60498  97.3958  16.6992 0005330  45.8935 314.2744 15.31398867 66354
FLOCK 4BE-30            
1 60499U 24149AH  25299.17045365  .00019671  00000+0  62839-3 0  9990
2 60499  97.4020  17.3570 0004191  47.5720 312.5876 15.32493406 65757
NUSAT-49 (KLARA DAN VO*)
1 60500U 24149AJ  25299.21640727  .00013188  00000+0  46581-3 0  9994
2 60500  97.3981  16.8208 0004464  67.3953 292.7759 15.29327458 66353
FLOCK 4BE-11            
1 60501U 24149AK  25299.19682357  .00018501  00000+0  58485-3 0  9997
2 60501  97.3927  17.0000 0005048  45.1446 315.0206 15.32838015 66386
FLOCK 4BE-33            
1 60502U 24149AL  25299.20860924  .00054158  00000+0  17823-2 0  9996
2 60502  97.3941  16.4621 0005386  51.4037 308.7686 15.31305502 66342
FLOCK 4BE-10            
1 60503U 24149AM  25299.18127409  .00061092  00000+0  18551-2 0  9992
2 60503  97.3990  16.9544 0003681  21.6418 338.4980 15.33853891 66353
YAM-7                   
1 60504U 24149AN  25299.16067907  .00010342  00000+0  38687-3 0  9992
2 60504  97.4006  15.7744 0004792  59.8707 300.3007 15.27502048 66277
FLOCK 4BE-24            
1 60505U 24149AP  25299.18495531  .00017858  00000+0  56026-3 0  9999
2 60505  97.3940  17.1967 0005035  54.4665 305.7046 15.33087983 66390
LUR-1                   
1 60506U 24149AQ  25299.16335716  .00009984  00000+0  39120-3 0  9993
2 60506  97.3980  15.0439 0005576  63.9772 296.2040 15.25964024 66232
TANAGER-4001            
1 60507U 24149AR  25299.17987199  .00000784  00000+0  19341-4 0  9996
2 60507  97.3884  25.5335 0009589 231.6095 128.4292 15.43686888 66938
EAGLEEYE                
1 60508U 24149AS  25299.20601354  .00036579  00000+0  85180-3 0  9991
2 60508  97.3972  20.0358 0003813  42.6365 317.5177 15.42185725 66572
FLOCK 4BE-29            
1 60509U 24149AT  25299.16898356  .00020420  00000+0  62454-3 0  9994
2 60509  97.4022  17.9692 0004060  67.2628 292.9044 15.33874975 66410
2024-149AU              
1 60510U 24149AU  25299.18972588  .00015010  00000+0  48399-3 0  9999
2 60510  97.3953  17.1106 0004949  59.2598 300.9130 15.32248326 66385
FLOCK 4BE-2             
1 60511U 24149AV  25299.17450292  .00021132  00000+0  63004-3 0  9994
2 60511  97.4029  18.3015 0004076  61.3302 298.8351 15.34676604 66433
FLOCK 4BE-13            
1 60512U 24149AW  25299.17208580  .00018165  00000+0  57099-3 0  9995
2 60512  97.3938  17.3300 0005236  42.0590 318.1054 15.33022496 66408
FLOCK 4BE-27            
1 60513U 24149AX  25299.16677998  .00012234  00000+0  43628-3 0  9992
2 60513  97.4040  16.5144 0005416  67.5637 292.6177 15.29028595 66318
FLOCK 4BE-9             
1 60514U 24149AY  25299.20807012  .00017880  00000+0  57611-3 0  9999
2 60514  97.4004  17.3760 0004386  72.6520 287.5201 15.32236253 66389
FLOCK 4BE-8             
1 60515U 24149AZ  25299.16467521  .00041689  00000+0  12186-2 0  9993
2 60515  97.3957  17.1338 0002616  27.2235 332.9145 15.35161395 66387
FLOCK 4BE-6             
1 60516U 24149BA  25299.21681762  .00017664  00000+0  58525-3 0  9999
2 60516  97.4008  17.0934 0004928  70.6829 289.4945 15.31339437 66368
FLOCK 4BE-14            
1 60517U 24149BB  25299.17167123  .00021721  00000+0  69589-3 0  9996
2 60517  97.3929  17.0696 0006006  64.5596 295.6267 15.32371095 66382
FLOCK 4BE-1             
1 60518U 24149BC  25299.17286645  .00020124  00000+0  63011-3 0  9998
2 60518  97.3997  17.6870 0005228  62.3912 297.7861 15.33124770 66404
FLOCK 4BE-28            
1 60519U 24149BD  25299.20858209  .00018580  00000+0  56023-3 0  9992
2 60519  97.3960  17.8923 0005798  61.3319 298.8506 15.34339232 66431
IPERDRONE.0             
1 60520U 24149BE  25299.20787647  .00032442  00000+0  75398-3 0  9990
2 60520  97.3986  20.4379 0004189  33.0359 327.1149 15.42268516 66590
2024-149BF              
1 60521U 24149BF  25299.22286858  .00039736  00000+0  87085-3 0  9990
2 60521  97.4004  20.9714 0004315  48.1801 311.9816 15.43979506 66626
CONNECTA IOT-2          
1 60522U 24149BG  25299.22019404  .00007225  00000+0  31246-3 0  9998
2 60522  97.4059  15.9672 0008367  74.3442 285.8717 15.22723164 66282
PTD-R (TYVAK-0127)      
1 60523U 24149BH  25299.16881329  .00037882  00000+0  70278-3 0  9995
2 60523  97.3973  22.6098 0004115  47.4992 312.6605 15.48856324 66741
CONNECTA IOT-4          
1 60524U 24149BJ  25299.19428075  .00017744  00000+0  56069-3 0  9991
2 60524  97.3998  17.1523 0006875  56.0677 304.1218 15.32850275 66379
ORESAT0.5               
1 60525U 24149BK  25299.17039660  .00018225  00000+0  53866-3 0  9995
2 60525  97.3935  18.0747 0007306  49.9875 310.2008 15.34963155 66458
DEIMOS                  
1 60526U 24149BL  25299.17082708  .00019615  00000+0  58750-3 0  9998
2 60526  97.3991  18.2584 0007369  55.8738 304.3203 15.34528640 66441
CUAVA-2                 
1 60527U 24149BM  25299.19995520  .00013130  00000+0  46382-3 0  9990
2 60527  97.3955  16.1698 0008607  55.4644 304.7408 15.29299415 66320
ERNST                   
1 60528U 24149BN  25299.17363701  .00016880  00000+0  55504-3 0  9990
2 60528  97.4018  17.1626 0007894  62.3575 297.8467 15.31576490 66366
GAINDESAT-1A            
1 60529U 24149BP  25299.23958542  .00091095  00000+0  11324-2 0  9993
2 60529  97.3978  24.6076 0002794  16.7961 343.3388 15.59670407 66866
TORO                    
1 60530U 24149BQ  25299.18298053  .00002447  00000+0  22835-3 0  9996
2 60530  97.7045  13.1035 0001565  83.4028 276.7371 14.95117241 64977
HYPSO-2                 
1 60531U 24149BR  25299.14625186  .00005021  00000+0  44229-3 0  9996
2 60531  97.7049  13.8029 0001674  84.6842 275.4570 14.96904219 65013
LEMU NGE                
1 60532U 24149BS  25299.19148230  .00003312  00000+0  30491-3 0  9999
2 60532  97.7079  13.5725 0002374  84.2791 275.8701 14.95404889 64997
LEMUR-2-STELLA          
1 60533U 24149BT  25299.17117305  .00015437  00000+0  10862-2 0  9997
2 60533  97.6933  16.4695 0001430 119.6220 240.5149 15.05152504 65213
SATELIOT_2              
1 60534U 24149BU  25299.16046829  .00003884  00000+0  35982-3 0  9993
2 60534  97.7075  13.2796 0001914 106.3924 253.7507 14.95063223 64984
NIGHTJAR                
1 60535U 24149BV  25299.15925106  .00005525  00000+0  48510-3 0  9992
2 60535  97.7086  14.1366 0002023 115.6678 244.4753 14.96992338107832
LEMUR-2-MARHISYAM       
1 60536U 24149BW  25299.21700358  .00012112  00000+0  85947-3 0  9995
2 60536  97.7088  16.6888 0002803 164.6124 195.5188 15.04891861 65219
SATELIOT_4              
1 60537U 24149BX  25299.22104115  .00003643  00000+0  33485-3 0  9995
2 60537  97.6981  13.0200 0003640  98.0137 262.1498 14.95403004 64990
PICO-02A021             
1 60538U 24149BY  25299.17494388  .00008146  00000+0  65778-3 0  9997
2 60538  97.7117  15.2160 0003485  77.5085 282.6528 15.00090441 64617
ICEYE-X43               
1 60539U 24149BZ  25299.21075768  .00004809  00000+0  41191-3 0  9995
2 60539  97.7008  14.2924 0004170 126.5906 233.5700 14.98018617 65061
HAWK-10A                
1 60540U 24149CA  25299.20966323  .00002657  00000+0  24540-3 0  9990
2 60540  97.7128  14.0080 0004670 124.9021 235.2639 14.95450847 65008
UMBRA-09                
1 60541U 24149CB  25299.21161656  .00016523  00000+0  10489-2 0  9991
2 60541  97.7149  18.7590 0000720  93.4899 266.6412 15.08953092 65321
QPS-SAR-8 (AMATERU-IV)  
1 60542U 24149CC  25299.19499106  .00006861  00000+0  54441-3 0  9994
2 60542  97.6987  15.5667 0007892 175.0933 185.0370 15.00805926 65134
ARCTIC WEATHER SATELLITE
1 60543U 24149CD  25299.21985713  .00001630  00000+0  17561-3 0  9993
2 60543  97.7069  11.0338 0002913 138.7031 221.4407 14.89782832 64464
CAPELLA-15 (ACADIA-5)   
1 60544U 24149CE  25299.19801641  .00009950  00000+0  97577-3 0  9996
2 60544  97.7016  12.6212 0004771 141.3542 218.8020 14.92415238 64958
HAWK-10B                
1 60545U 24149CF  25299.27640493  .00002693  00000+0  24861-3 0  9995
2 60545  97.7052  13.6576 0006315 144.8582 215.3057 14.95450826 65016
ICEYE-X39               
1 60546U 24149CG  25299.17778560  .00004943  00000+0  42458-3 0  9994
2 60546  97.7040  14.3420 0005301 129.6455 230.5236 14.97893148 65067
UMBRA-10                
1 60547U 24149CH  25299.21116400  .00016602  00000+0  10538-2 0  9997
2 60547  97.7157  18.7658 0001783  87.4169 272.7263 15.08958581 65335
ICEYE-X33               
1 60548U 24149CJ  25299.18833725  .00003609  00000+0  29954-3 0  9996
2 60548  97.7080  15.3053 0004474 131.0238 229.1372 14.99397307 65111
